{"type":"FeatureCollection","nombre":"Instalaciones acuáticas","crs":{"type":"name","properties":{"name":""}},"features":[{"id":"1148450","type":"Feature","geometry":{"type":"Point","coordinates":[-2.8217049999999997,42.413313,0]},"properties":{"Nombre":"Piscina municipal de Alesanco","Código":"26009IA01","Denominación":"Piscina municipal de Alesanco","Municipio":"Alesanco","Titularidad":"Pública","Tipo de piscina":"Descubierta","Número de vasos":1,"Observaciones":""},"style":{"icon":{"iconUrl":"https://apigeo.larioja.org/img_punto.php?e=91575","iconSize":[32,37],"iconAnchor":[16,37],"popupAnchor":[0,-18.5]}}},{"id":"1148451","type":"Feature","geometry":{"type":"Point","coordinates":[-2.691511,42.404256,0]},"properties":{"Nombre":"Piscina municipal de Alesón","Código":"26010IA01","Denominación":"Piscina municipal de Alesón","Municipio":"Alesón","Titularidad":"Pública","Tipo de piscina":"Descubierta","Número de vasos":1,"Observaciones":""},"style":{"icon":{"iconUrl":"https://apigeo.larioja.org/img_punto.php?e=91575","iconSize":[32,37],"iconAnchor":[16,37],"popupAnchor":[0,-18.5]}}},{"id":"1148452","type":"Feature","geometry":{"type":"Point","coordinates":[-2.905215,42.573619,0]},"properties":{"Nombre":"Piscina municipal de Anguciana","Código":"26013IA01","Denominación":"Piscina municipal de Anguciana","Municipio":"Anguciana","Titularidad":"Pública","Tipo de piscina":"Descubierta","Número de vasos":2,"Observaciones":""},"style":{"icon":{"iconUrl":"https://apigeo.larioja.org/img_punto.php?e=91575","iconSize":[32,37],"iconAnchor":[16,37],"popupAnchor":[0,-18.5]}}},{"id":"1148453","type":"Feature","geometry":{"type":"Point","coordinates":[-2.766423,42.264568,0]},"properties":{"Nombre":"Piscina municipal de Anguiano","Código":"26014IA01","Denominación":"Piscina municipal de Anguiano","Municipio":"Anguiano","Titularidad":"Pública","Tipo de piscina":"Descubierta","Número de vasos":2,"Observaciones":""},"style":{"icon":{"iconUrl":"https://apigeo.larioja.org/img_punto.php?e=91575","iconSize":[32,37],"iconAnchor":[16,37],"popupAnchor":[0,-18.5]}}},{"id":"1148454","type":"Feature","geometry":{"type":"Point","coordinates":[-2.816114,42.363546,0]},"properties":{"Nombre":"Piscina municipal de Badarán","Código":"26023IA01","Denominación":"Piscina municipal de Badarán","Municipio":"Badarán","Titularidad":"Pública","Tipo de piscina":"Descubierta","Número de vasos":2,"Observaciones":""},"style":{"icon":{"iconUrl":"https://apigeo.larioja.org/img_punto.php?e=91575","iconSize":[32,37],"iconAnchor":[16,37],"popupAnchor":[0,-18.5]}}},{"id":"1148455","type":"Feature","geometry":{"type":"Point","coordinates":[-2.913693,42.46941,0]},"properties":{"Nombre":"Piscina municipal de Bañares","Código":"26024IA01","Denominación":"Piscina municipal de Bañares","Municipio":"Bañares","Titularidad":"Pública","Tipo de piscina":"Descubierta","Número de vasos":2,"Observaciones":""},"style":{"icon":{"iconUrl":"https://apigeo.larioja.org/img_punto.php?e=91575","iconSize":[32,37],"iconAnchor":[16,37],"popupAnchor":[0,-18.5]}}},{"id":"1148456","type":"Feature","geometry":{"type":"Point","coordinates":[-2.762317,42.337555,0]},"properties":{"Nombre":"Piscina municipal de Baños de río Tobía","Código":"26026IA01","Denominación":"Piscina municipal de Baños de río Tobía","Municipio":"Baños de Río Tobía","Titularidad":"Pública","Tipo de piscina":"Descubierta","Número de vasos":2,"Observaciones":""},"style":{"icon":{"iconUrl":"https://apigeo.larioja.org/img_punto.php?e=91575","iconSize":[32,37],"iconAnchor":[16,37],"popupAnchor":[0,-18.5]}}},{"id":"1148458","type":"Feature","geometry":{"type":"Point","coordinates":[-2.9271089999999997,42.511945,0]},"properties":{"Nombre":"Piscina municipal de Castañares de Rioja","Código":"26043IA01","Denominación":"Piscina municipal de Castañares de Rioja","Municipio":"Castañares de Rioja","Titularidad":"Pública","Tipo de piscina":"Descubierta","Número de vasos":2,"Observaciones":""},"style":{"icon":{"iconUrl":"https://apigeo.larioja.org/img_punto.php?e=91575","iconSize":[32,37],"iconAnchor":[16,37],"popupAnchor":[0,-18.5]}}},{"id":"1148459","type":"Feature","geometry":{"type":"Point","coordinates":[-2.92249,42.566202,0]},"properties":{"Nombre":"Piscina municipal de Cihuri","Código":"26049IA01","Denominación":"Piscina municipal de Cihuri","Municipio":"Cihuri","Titularidad":"Pública","Tipo de piscina":"Descubierta","Número de vasos":2,"Observaciones":""},"style":{"icon":{"iconUrl":"https://apigeo.larioja.org/img_punto.php?e=91575","iconSize":[32,37],"iconAnchor":[16,37],"popupAnchor":[0,-18.5]}}},{"id":"1148460","type":"Feature","geometry":{"type":"Point","coordinates":[-2.967906,42.548698,0]},"properties":{"Nombre":"Piscina municipal de Cuzcurrita de río Tirón","Código":"26056IA01","Denominación":"Piscina municipal de Cuzcurrita de río Tirón","Municipio":"Cuzcurrita de Río Tirón","Titularidad":"Pública","Tipo de piscina":"Descubierta","Número de vasos":2,"Observaciones":""},"style":{"icon":{"iconUrl":"https://apigeo.larioja.org/img_punto.php?e=91575","iconSize":[32,37],"iconAnchor":[16,37],"popupAnchor":[0,-18.5]}}},{"id":"1148461","type":"Feature","geometry":{"type":"Point","coordinates":[-3.012344,42.332181,0]},"properties":{"Nombre":"Piscina municipal de Ezcaray","Código":"26061IA01","Denominación":"Piscina municipal de Ezcaray","Municipio":"Ezcaray","Titularidad":"Pública","Tipo de piscina":"Descubierta","Número de vasos":2,"Observaciones":""},"style":{"icon":{"iconUrl":"https://apigeo.larioja.org/img_punto.php?e=91575","iconSize":[32,37],"iconAnchor":[16,37],"popupAnchor":[0,-18.5]}}},{"id":"1148462","type":"Feature","geometry":{"type":"Point","coordinates":[-2.852031,42.577525,0]},"properties":{"Nombre":"Piscina descubierta municipal de Haro","Código":"26071IA01","Denominación":"Piscina descubierta municipal de Haro","Municipio":"Haro","Titularidad":"Pública","Tipo de piscina":"Descubierta","Número de vasos":3,"Observaciones":"Cuenta con atracciones acuáticas."},"style":{"icon":{"iconUrl":"https://apigeo.larioja.org/img_punto.php?e=91575","iconSize":[32,37],"iconAnchor":[16,37],"popupAnchor":[0,-18.5]}}},{"id":"1148463","type":"Feature","geometry":{"type":"Point","coordinates":[-2.850348,42.568004,0]},"properties":{"Nombre":"Piscina climatizada El Mazo (Haro)","Código":"26071IA02","Denominación":"Piscina climatizada El Mazo (Haro)","Municipio":"Haro","Titularidad":"Pública","Tipo de piscina":"Cubierta","Número de vasos":3,"Observaciones":""},"style":{"icon":{"iconUrl":"https://apigeo.larioja.org/img_punto.php?e=91575","iconSize":[32,37],"iconAnchor":[16,37],"popupAnchor":[0,-18.5]}}},{"id":"1148464","type":"Feature","geometry":{"type":"Point","coordinates":[-2.776174,42.441792,0]},"properties":{"Nombre":"Piscina municipal de Hormilla","Código":"26075IA01","Denominación":"Piscina municipal de Hormilla","Municipio":"Hormilla","Titularidad":"Pública","Tipo de piscina":"Descubierta","Número de vasos":2,"Observaciones":""},"style":{"icon":{"iconUrl":"https://apigeo.larioja.org/img_punto.php?e=91575","iconSize":[32,37],"iconAnchor":[16,37],"popupAnchor":[0,-18.5]}}},{"id":"1148465","type":"Feature","geometry":{"type":"Point","coordinates":[-2.729439,42.454695,0]},"properties":{"Nombre":"Piscina municipal de Hormilleja","Código":"26076IA01","Denominación":"Piscina municipal de Hormilleja","Municipio":"Hormilleja","Titularidad":"Pública","Tipo de piscina":"Descubierta","Número de vasos":2,"Observaciones":""},"style":{"icon":{"iconUrl":"https://apigeo.larioja.org/img_punto.php?e=91575","iconSize":[32,37],"iconAnchor":[16,37],"popupAnchor":[0,-18.5]}}},{"id":"1148466","type":"Feature","geometry":{"type":"Point","coordinates":[-3.049475,42.503078,0]},"properties":{"Nombre":"Piscina municipal de Leiva","Código":"26087IA01","Denominación":"Piscina municipal de Leiva","Municipio":"Leiva","Titularidad":"Pública","Tipo de piscina":"Descubierta","Número de vasos":2,"Observaciones":""},"style":{"icon":{"iconUrl":"https://apigeo.larioja.org/img_punto.php?e=91575","iconSize":[32,37],"iconAnchor":[16,37],"popupAnchor":[0,-18.5]}}},{"id":"1148467","type":"Feature","geometry":{"type":"Point","coordinates":[-2.7319500000000003,42.413436,0]},"properties":{"Nombre":"AQUANÁJERA","Código":"26102IA02","Denominación":"AQUANÁJERA","Municipio":"Nájera","Titularidad":"Pública","Tipo de piscina":"Cubierta","Número de vasos":4,"Observaciones":""},"style":{"icon":{"iconUrl":"https://apigeo.larioja.org/img_punto.php?e=91575","iconSize":[32,37],"iconAnchor":[16,37],"popupAnchor":[0,-18.5]}}},{"id":"1148468","type":"Feature","geometry":{"type":"Point","coordinates":[-2.7534609999999997,42.497384,0]},"properties":{"Nombre":"Piscina municipal de San Asensio","Código":"26129IA01","Denominación":"Piscina municipal de San Asensio","Municipio":"San Asensio","Titularidad":"Pública","Tipo de piscina":"Descubierta","Número de vasos":2,"Observaciones":""},"style":{"icon":{"iconUrl":"https://apigeo.larioja.org/img_punto.php?e=91575","iconSize":[32,37],"iconAnchor":[16,37],"popupAnchor":[0,-18.5]}}},{"id":"1148469","type":"Feature","geometry":{"type":"Point","coordinates":[-2.959933,42.426504,0]},"properties":{"Nombre":"Piscina municipal de Santo Domingo de la Calzada","Código":"26138IA01","Denominación":"Piscina municipal de Santo Domingo de la Calzada","Municipio":"Santo Domingo de la Calzada","Titularidad":"Pública","Tipo de piscina":"Descubierta","Número de vasos":3,"Observaciones":""},"style":{"icon":{"iconUrl":"https://apigeo.larioja.org/img_punto.php?e=91575","iconSize":[32,37],"iconAnchor":[16,37],"popupAnchor":[0,-18.5]}}},{"id":"1148470","type":"Feature","geometry":{"type":"Point","coordinates":[-2.980792,42.391007,0]},"properties":{"Nombre":"Piscina municipal de Santude","Código":"26140IA01","Denominación":"Piscina municipal de Santude","Municipio":"Santurde de Rioja","Titularidad":"Pública","Tipo de piscina":"Descubierta","Número de vasos":2,"Observaciones":""},"style":{"icon":{"iconUrl":"https://apigeo.larioja.org/img_punto.php?e=91575","iconSize":[32,37],"iconAnchor":[16,37],"popupAnchor":[0,-18.5]}}},{"id":"1148471","type":"Feature","geometry":{"type":"Point","coordinates":[-2.76248,42.564739,0]},"properties":{"Nombre":"Piscina municipal de San Vicente de la Sonsierra","Código":"26142IA01","Denominación":"Piscina municipal de San Vicente de la Sonsierra","Municipio":"San Vicente de la Sonsierra","Titularidad":"Pública","Tipo de piscina":"Descubierta","Número de vasos":1,"Observaciones":""},"style":{"icon":{"iconUrl":"https://apigeo.larioja.org/img_punto.php?e=91575","iconSize":[32,37],"iconAnchor":[16,37],"popupAnchor":[0,-18.5]}}},{"id":"1148472","type":"Feature","geometry":{"type":"Point","coordinates":[-3.048495,42.557698,0]},"properties":{"Nombre":"Piscina municipal de Treviana","Código":"26155IA01","Denominación":"Piscina municipal de Treviana","Municipio":"Treviana","Titularidad":"Pública","Tipo de piscina":"Descubierta","Número de vasos":1,"Observaciones":""},"style":{"icon":{"iconUrl":"https://apigeo.larioja.org/img_punto.php?e=91575","iconSize":[32,37],"iconAnchor":[16,37],"popupAnchor":[0,-18.5]}}},{"id":"1148473","type":"Feature","geometry":{"type":"Point","coordinates":[-2.713336,42.45227,0]},"properties":{"Nombre":"Piscina municipal de Uruñuela","Código":"26160IA01","Denominación":"Piscina municipal de Uruñuela","Municipio":"Uruñuela","Titularidad":"Pública","Tipo de piscina":"Descubierta","Número de vasos":2,"Observaciones":""},"style":{"icon":{"iconUrl":"https://apigeo.larioja.org/img_punto.php?e=91575","iconSize":[32,37],"iconAnchor":[16,37],"popupAnchor":[0,-18.5]}}},{"id":"1148474","type":"Feature","geometry":{"type":"Point","coordinates":[-3.070627,42.317398,0]},"properties":{"Nombre":"Piscina municipal de Valgañón","Código":"26162IA01","Denominación":"Piscina municipal de Valgañón","Municipio":"Valgañón","Titularidad":"Pública","Tipo de piscina":"Descubierta","Número de vasos":2,"Observaciones":""},"style":{"icon":{"iconUrl":"https://apigeo.larioja.org/img_punto.php?e=91575","iconSize":[32,37],"iconAnchor":[16,37],"popupAnchor":[0,-18.5]}}},{"id":"1148475","type":"Feature","geometry":{"type":"Point","coordinates":[-3.050354,42.4303,0]},"properties":{"Nombre":"Piscina municipal de Villarta-Quintana","Código":"26174IA01","Denominación":"Piscina municipal de Villarta-Quintana","Municipio":"Villarta-Quintana","Titularidad":"Pública","Tipo de piscina":"Descubierta","Número de vasos":1,"Observaciones":""},"style":{"icon":{"iconUrl":"https://apigeo.larioja.org/img_punto.php?e=91575","iconSize":[32,37],"iconAnchor":[16,37],"popupAnchor":[0,-18.5]}}},{"id":"1148476","type":"Feature","geometry":{"type":"Point","coordinates":[-2.914778,42.547708,0]},"properties":{"Nombre":"Piscina municipal de Casalarreina","Código":"26042IA01","Denominación":"Piscina municipal de Casalarreina","Municipio":"Casalarreina","Titularidad":"Pública","Tipo de piscina":"Descubierta","Número de vasos":2,"Observaciones":""},"style":{"icon":{"iconUrl":"https://apigeo.larioja.org/img_punto.php?e=91575","iconSize":[32,37],"iconAnchor":[16,37],"popupAnchor":[0,-18.5]}}},{"id":"1148477","type":"Feature","geometry":{"type":"Point","coordinates":[-3.028393,42.44551,0]},"properties":{"Nombre":"Piscina municipal de Grañón","Código":"26069IA01","Denominación":"Piscina municipal de Grañón","Municipio":"Grañón","Titularidad":"Pública","Tipo de piscina":"Descubierta","Número de vasos":2,"Observaciones":""},"style":{"icon":{"iconUrl":"https://apigeo.larioja.org/img_punto.php?e=91575","iconSize":[32,37],"iconAnchor":[16,37],"popupAnchor":[0,-18.5]}}},{"id":"1148478","type":"Feature","geometry":{"type":"Point","coordinates":[-2.848305,42.526313,0]},"properties":{"Nombre":"Piscina municipal de Rodezno","Código":"26127IA01","Denominación":"Piscina municipal de Rodezno","Municipio":"Rodezno","Titularidad":"Pública","Tipo de piscina":"Descubierta","Número de vasos":2,"Observaciones":""},"style":{"icon":{"iconUrl":"https://apigeo.larioja.org/img_punto.php?e=91575","iconSize":[32,37],"iconAnchor":[16,37],"popupAnchor":[0,-18.5]}}},{"id":"1148479","type":"Feature","geometry":{"type":"Point","coordinates":[-2.882383,42.514042,0]},"properties":{"Nombre":"Piscina municipal de Zarratón","Código":"26180IA01","Denominación":"Piscina municipal de Zarratón","Municipio":"Zarratón","Titularidad":"Pública","Tipo de piscina":"Descubierta","Número de vasos":2,"Observaciones":""},"style":{"icon":{"iconUrl":"https://apigeo.larioja.org/img_punto.php?e=91575","iconSize":[32,37],"iconAnchor":[16,37],"popupAnchor":[0,-18.5]}}},{"id":"1148549","type":"Feature","geometry":{"type":"Point","coordinates":[-1.981857,41.969221,0]},"properties":{"Nombre":"Piscina municipal de Aguilar de río Alhama","Código":"26003IA01","Denominación":"Piscina municipal de Aguilar de río Alhama","Municipio":"Aguilar del Río Alhama","Titularidad":"Pública","Tipo de piscina":"Descubierta","Número de vasos":2,"Observaciones":""},"style":{"icon":{"iconUrl":"https://apigeo.larioja.org/img_punto.php?e=91575","iconSize":[32,37],"iconAnchor":[16,37],"popupAnchor":[0,-18.5]}}},{"id":"1148550","type":"Feature","geometry":{"type":"Point","coordinates":[-1.879693,42.22803,0]},"properties":{"Nombre":"Piscina municipal de Aldeanueva de Ebro","Código":"26008IA01","Denominación":"Piscina municipal de Aldeanueva de Ebro","Municipio":"Aldeanueva de Ebro","Titularidad":"Pública","Tipo de piscina":"Mixta","Número de vasos":5,"Observaciones":" son 2 de la piscina descubierta y 2 de la climatizada, un de ellos es de hidromasaje."},"style":{"icon":{"iconUrl":"https://apigeo.larioja.org/img_punto.php?e=91575","iconSize":[32,37],"iconAnchor":[16,37],"popupAnchor":[0,-18.5]}}},{"id":"1148552","type":"Feature","geometry":{"type":"Point","coordinates":[-1.748136,42.167231,0]},"properties":{"Nombre":"Polideportivo municipal de La Molineta","Código":"26011IA02","Denominación":"Piscina municipal de La Molineta","Municipio":"Alfaro","Titularidad":"Pública","Tipo de piscina":"Descubierta","Número de vasos":3,"Observaciones":""},"style":{"icon":{"iconUrl":"https://apigeo.larioja.org/img_punto.php?e=91575","iconSize":[32,37],"iconAnchor":[16,37],"popupAnchor":[0,-18.5]}}},{"id":"1148602","type":"Feature","geometry":{"type":"Point","coordinates":[-2.240672,42.20899,0]},"properties":{"Nombre":"Piscina municipal de Arnedillo","Código":"26017IA01","Denominación":"Piscina municipal de Arnedillo","Municipio":"Arnedillo","Titularidad":"Pública","Tipo de piscina":"Descubierta","Número de vasos":3,"Observaciones":""},"style":{"icon":{"iconUrl":"https://apigeo.larioja.org/img_punto.php?e=91575","iconSize":[32,37],"iconAnchor":[16,37],"popupAnchor":[0,-18.5]}}},{"id":"1148605","type":"Feature","geometry":{"type":"Point","coordinates":[-2.106081,42.221097,0]},"properties":{"Nombre":"CDM Fuente Lavero (Arnedo)","Código":"26018IA01","Denominación":"CDM Fuente Lavero","Municipio":"Arnedo","Titularidad":"Pública","Tipo de piscina":"Mixta","Número de vasos":6,"Observaciones":"2 descubiertos y 4 cubiertos (+2 spas)"},"style":{"icon":{"iconUrl":"https://apigeo.larioja.org/img_punto.php?e=91575","iconSize":[32,37],"iconAnchor":[16,37],"popupAnchor":[0,-18.5]}}},{"id":"1148607","type":"Feature","geometry":{"type":"Point","coordinates":[-2.001398,42.216832,0]},"properties":{"Nombre":"Piscina municipal de Autol","Código":"26021IA01","Denominación":"Piscina municipal de Autol","Municipio":"Autol","Titularidad":"Pública","Tipo de piscina":"Descubierta","Número de vasos":2,"Observaciones":"Tiene atracciones acuáticas"},"style":{"icon":{"iconUrl":"https://apigeo.larioja.org/img_punto.php?e=91575","iconSize":[32,37],"iconAnchor":[16,37],"popupAnchor":[0,-18.5]}}},{"id":"1148608","type":"Feature","geometry":{"type":"Point","coordinates":[-1.97649,42.304926,0]},"properties":{"Nombre":"CDM La Planilla (Calahorra)","Código":"26036IA01","Denominación":"Polideportivo municipal La Planilla","Municipio":"Calahorra","Titularidad":"Pública","Tipo de piscina":"Mixta","Número de vasos":6,"Observaciones":"3 en la descubierta y 3 en la cubierta (1 spa)"},"style":{"icon":{"iconUrl":"https://apigeo.larioja.org/img_punto.php?e=91575","iconSize":[32,37],"iconAnchor":[16,37],"popupAnchor":[0,-18.5]}}},{"id":"1148610","type":"Feature","geometry":{"type":"Point","coordinates":[-1.9705689999999998,42.049824,0]},"properties":{"Nombre":"Piscina municipal de Rincón de Olivedo","Código":"26047IA01","Denominación":"Piscina municipal de Rincón de Olivedo","Municipio":"Cervera del Río Alhama","Titularidad":"Pública","Tipo de piscina":"Descubierta","Número de vasos":3,"Observaciones":""},"style":{"icon":{"iconUrl":"https://apigeo.larioja.org/img_punto.php?e=91575","iconSize":[32,37],"iconAnchor":[16,37],"popupAnchor":[0,-18.5]}}},{"id":"1148612","type":"Feature","geometry":{"type":"Point","coordinates":[-1.9093019999999998,41.996355,0]},"properties":{"Nombre":"Piscina municipal de Cabretón","Código":"26047IA02","Denominación":"Piscina municipal de Cabretón","Municipio":"Cervera del Río Alhama","Titularidad":"Pública","Tipo de piscina":"Descubierta","Número de vasos":1,"Observaciones":""},"style":{"icon":{"iconUrl":"https://apigeo.larioja.org/img_punto.php?e=91575","iconSize":[32,37],"iconAnchor":[16,37],"popupAnchor":[0,-18.5]}}},{"id":"1148615","type":"Feature","geometry":{"type":"Point","coordinates":[-2.00824,42.071598,0]},"properties":{"Nombre":"Piscina municipal de Igea","Código":"26080IA01","Denominación":"Piscina municipal de Igea","Municipio":"Igea","Titularidad":"Pública","Tipo de piscina":"Descubierta","Número de vasos":1,"Observaciones":""},"style":{"icon":{"iconUrl":"https://apigeo.larioja.org/img_punto.php?e=91575","iconSize":[32,37],"iconAnchor":[16,37],"popupAnchor":[0,-18.5]}}},{"id":"1148616","type":"Feature","geometry":{"type":"Point","coordinates":[-2.092457,42.067004,0]},"properties":{"Nombre":"Piscina municipal de Cornago","Código":"26047IA05","Denominación":"Piscina municipal de Cornago","Municipio":"Cornago","Titularidad":"Pública","Tipo de piscina":"Descubierta","Número de vasos":1,"Observaciones":""},"style":{"icon":{"iconUrl":"https://apigeo.larioja.org/img_punto.php?e=91575","iconSize":[32,37],"iconAnchor":[16,37],"popupAnchor":[0,-18.5]}}},{"id":"1148617","type":"Feature","geometry":{"type":"Point","coordinates":[-1.994323,42.106626,0]},"properties":{"Nombre":"Piscina municipal de Grávalos","Código":"26070IA01","Denominación":"Piscina municipal de Grávalos","Municipio":"Grávalos","Titularidad":"Pública","Tipo de piscina":"Descubierta","Número de vasos":2,"Observaciones":""},"style":{"icon":{"iconUrl":"https://apigeo.larioja.org/img_punto.php?e=91575","iconSize":[32,37],"iconAnchor":[16,37],"popupAnchor":[0,-18.5]}}},{"id":"1148619","type":"Feature","geometry":{"type":"Point","coordinates":[-2.167256,42.213153,0]},"properties":{"Nombre":"Piscina municipal de Herce","Código":"26072IA01","Denominación":"Piscina municipal de Herce","Municipio":"Herce","Titularidad":"Pública","Tipo de piscina":"Descubierta","Número de vasos":2,"Observaciones":""},"style":{"icon":{"iconUrl":"https://apigeo.larioja.org/img_punto.php?e=91575","iconSize":[32,37],"iconAnchor":[16,37],"popupAnchor":[0,-18.5]}}},{"id":"4671261","type":"Feature","geometry":{"type":"Point","coordinates":[-2.289908,42.446916,0]},"properties":{"Nombre":"Piscina Municipal de Agoncillo","Código":"","Denominación":"Piscina Municipal de Agoncillo","Municipio":"Agoncillo","Titularidad":"Pública","Tipo de piscina":"Descubierta","Número de vasos":2,"Observaciones":""},"style":{"icon":{"iconUrl":"https://apigeo.larioja.org/img_punto.php?e=91575","iconSize":[32,37],"iconAnchor":[16,37],"popupAnchor":[0,-18.5]}}},{"id":"4671262","type":"Feature","geometry":{"type":"Point","coordinates":[-2.2981249999999998,42.18842,0]},"properties":{"Nombre":"Piscina Municipal de Munilla","Código":"","Denominación":"Piscina Municipal de Munilla","Municipio":"Munilla","Titularidad":"Pública","Tipo de piscina":"Descubierta","Número de vasos":1,"Observaciones":""},"style":{"icon":{"iconUrl":"https://apigeo.larioja.org/img_punto.php?e=91575","iconSize":[32,37],"iconAnchor":[16,37],"popupAnchor":[0,-18.5]}}},{"id":"4671267","type":"Feature","geometry":{"type":"Point","coordinates":[-2.058277,42.229301,0]},"properties":{"Nombre":"Piscina Municipal de Quel","Código":"","Denominación":"Piscina Municipal de Quel","Municipio":"Quel","Titularidad":"Pública","Tipo de piscina":"Descubierta","Número de vasos":2,"Observaciones":""},"style":{"icon":{"iconUrl":"https://apigeo.larioja.org/img_punto.php?e=91575","iconSize":[32,37],"iconAnchor":[16,37],"popupAnchor":[0,-18.5]}}},{"id":"4671271","type":"Feature","geometry":{"type":"Point","coordinates":[-1.85418,42.231478,0]},"properties":{"Nombre":"Piscina Municipal de Rincon de Soto","Código":"","Denominación":"Piscina Municipal de Rincon de Soto","Municipio":"Rincón de Soto","Titularidad":"Pública","Tipo de piscina":"Descubierta","Número de vasos":3,"Observaciones":""},"style":{"icon":{"iconUrl":"https://apigeo.larioja.org/img_punto.php?e=91575","iconSize":[32,37],"iconAnchor":[16,37],"popupAnchor":[0,-18.5]}}},{"id":"4671275","type":"Feature","geometry":{"type":"Point","coordinates":[-2.09006,42.318016,0]},"properties":{"Nombre":"Piscina Municipal de El Villar de Arnedo","Código":"","Denominación":"Piscina Municipal de El Villar de Arnedo","Municipio":"Villar de Arnedo (El)","Titularidad":"Pública","Tipo de piscina":"Descubierta","Número de vasos":2,"Observaciones":""},"style":{"icon":{"iconUrl":"https://apigeo.larioja.org/img_punto.php?e=91575","iconSize":[32,37],"iconAnchor":[16,37],"popupAnchor":[0,-18.5]}}},{"id":"4678031","type":"Feature","geometry":{"type":"Point","coordinates":[-1.865217,41.980087,0]},"properties":{"Nombre":"Piscina Municipal de Valverde","Código":"","Denominación":"Piscina Municipal de Valverde","Municipio":"Cervera del Río Alhama","Titularidad":"Pública","Tipo de piscina":"Descubierta","Número de vasos":2,"Observaciones":"DEPENDE DEL MUNICIPIO DE CERVERA"},"style":{"icon":{"iconUrl":"https://apigeo.larioja.org/img_punto.php?e=91575","iconSize":[32,37],"iconAnchor":[16,37],"popupAnchor":[0,-18.5]}}},{"id":"4678032","type":"Feature","geometry":{"type":"Point","coordinates":[-2.259982,42.309331,0]},"properties":{"Nombre":"Piscina Municipal de Santa Lucia de Ocon","Código":"","Denominación":"Piscina Municipal de Santa Lucia de Ocon","Municipio":"Ocón","Titularidad":"Pública","Tipo de piscina":"Descubierta","Número de vasos":1,"Observaciones":"Pertenece al municipio de Ocon"},"style":{"icon":{"iconUrl":"https://apigeo.larioja.org/img_punto.php?e=91575","iconSize":[32,37],"iconAnchor":[16,37],"popupAnchor":[0,-18.5]}}},{"id":"4678033","type":"Feature","geometry":{"type":"Point","coordinates":[-2.52447,42.381755,0]},"properties":{"Nombre":"Piscina Municipal de Entrena","Código":"","Denominación":"Piscina Municipal de Entrena","Municipio":"Entrena","Titularidad":"Pública","Tipo de piscina":"Descubierta","Número de vasos":2,"Observaciones":""},"style":{"icon":{"iconUrl":"https://apigeo.larioja.org/img_punto.php?e=91575","iconSize":[32,37],"iconAnchor":[16,37],"popupAnchor":[0,-18.5]}}},{"id":"4678034","type":"Feature","geometry":{"type":"Point","coordinates":[-2.440899,42.399164999999996,0]},"properties":{"Nombre":"Piscina Municipal de  Alberite","Código":"","Denominación":"Piscina Municipal de  Alberite","Municipio":"Alberite","Titularidad":"Pública","Tipo de piscina":"Descubierta","Número de vasos":2,"Observaciones":""},"style":{"icon":{"iconUrl":"https://apigeo.larioja.org/img_punto.php?e=91575","iconSize":[32,37],"iconAnchor":[16,37],"popupAnchor":[0,-18.5]}}},{"id":"4678035","type":"Feature","geometry":{"type":"Point","coordinates":[-2.117608,42.402959,0]},"properties":{"Nombre":"Piscina Municipal de Alcanadre","Código":"","Denominación":"Piscina Municipal de Alcanadre","Municipio":"Alcanadre","Titularidad":"Pública","Tipo de piscina":"Descubierta","Número de vasos":2,"Observaciones":""},"style":{"icon":{"iconUrl":"https://apigeo.larioja.org/img_punto.php?e=91575","iconSize":[32,37],"iconAnchor":[16,37],"popupAnchor":[0,-18.5]}}},{"id":"4678036","type":"Feature","geometry":{"type":"Point","coordinates":[-1.754435,42.172772,0]},"properties":{"Nombre":"Piscina Colegio La Salle de Alfaro","Código":"","Denominación":"Piscina Colegio La Salle de Alfaro","Municipio":"Alfaro","Titularidad":"Pública","Tipo de piscina":"Descubierta","Número de vasos":2,"Observaciones":""},"style":{"icon":{"iconUrl":"https://apigeo.larioja.org/img_punto.php?e=91575","iconSize":[32,37],"iconAnchor":[16,37],"popupAnchor":[0,-18.5]}}},{"id":"4678038","type":"Feature","geometry":{"type":"Point","coordinates":[-2.24897,42.431174,0]},"properties":{"Nombre":"Piscina municipal de Arrúbal","Código":"","Denominación":"Piscina municipal de Arrúbal","Municipio":"Arrúbal","Titularidad":"Pública","Tipo de piscina":"Descubierta","Número de vasos":2,"Observaciones":""},"style":{"icon":{"iconUrl":"https://apigeo.larioja.org/img_punto.php?e=91575","iconSize":[32,37],"iconAnchor":[16,37],"popupAnchor":[0,-18.5]}}},{"id":"4678039","type":"Feature","geometry":{"type":"Point","coordinates":[-2.168188,42.341845,0]},"properties":{"Nombre":"Piscina Municipal de Ausejo","Código":"","Denominación":"Piscina Municipal de Ausejo","Municipio":"Ausejo","Titularidad":"Pública","Tipo de piscina":"Descubierta","Número de vasos":2,"Observaciones":""},"style":{"icon":{"iconUrl":"https://apigeo.larioja.org/img_punto.php?e=91575","iconSize":[32,37],"iconAnchor":[16,37],"popupAnchor":[0,-18.5]}}},{"id":"4678040","type":"Feature","geometry":{"type":"Point","coordinates":[-2.8370800000000003,42.605278,0]},"properties":{"Nombre":"Piscina Municipal de Briñas","Código":"","Denominación":"Piscina Municipal de Briñas","Municipio":"Briñas","Titularidad":"Pública","Tipo de piscina":"Descubierta","Número de vasos":2,"Observaciones":""},"style":{"icon":{"iconUrl":"https://apigeo.larioja.org/img_punto.php?e=91575","iconSize":[32,37],"iconAnchor":[16,37],"popupAnchor":[0,-18.5]}}},{"id":"4678041","type":"Feature","geometry":{"type":"Point","coordinates":[-2.7802629999999997,42.544917,0]},"properties":{"Nombre":"Piscina Municipal de Briones","Código":"","Denominación":"Piscina Municipal de Briones","Municipio":"Briones","Titularidad":"Pública","Tipo de piscina":"Descubierta","Número de vasos":2,"Observaciones":""},"style":{"icon":{"iconUrl":"https://apigeo.larioja.org/img_punto.php?e=91575","iconSize":[32,37],"iconAnchor":[16,37],"popupAnchor":[0,-18.5]}}},{"id":"4678042","type":"Feature","geometry":{"type":"Point","coordinates":[-1.9902069999999998,42.30766,0]},"properties":{"Nombre":"Piscina Club Polideportivo Juventud Calahorra","Código":"","Denominación":"Piscina Club Polideportivo Juventud Calahorra","Municipio":"Calahorra","Titularidad":"Privada","Tipo de piscina":"Descubierta","Número de vasos":2,"Observaciones":""},"style":{"icon":{"iconUrl":"https://apigeo.larioja.org/img_punto.php?e=91575","iconSize":[32,37],"iconAnchor":[16,37],"popupAnchor":[0,-18.5]}}},{"id":"4678043","type":"Feature","geometry":{"type":"Point","coordinates":[-2.634027,42.482475,0]},"properties":{"Nombre":"Piscina Municipal de Cenicero","Código":"","Denominación":"Piscina Municipal de Cenicero","Municipio":"Cenicero","Titularidad":"Pública","Tipo de piscina":"Descubierta","Número de vasos":2,"Observaciones":""},"style":{"icon":{"iconUrl":"https://apigeo.larioja.org/img_punto.php?e=91575","iconSize":[32,37],"iconAnchor":[16,37],"popupAnchor":[0,-18.5]}}},{"id":"4678045","type":"Feature","geometry":{"type":"Point","coordinates":[-2.270866,42.1471,0]},"properties":{"Nombre":"El Barranco Perdido Enciso","Código":"","Denominación":"El Barranco Perdido Enciso","Municipio":"Enciso","Titularidad":"Pública","Tipo de piscina":"Descubierta","Número de vasos":2,"Observaciones":""},"style":{"icon":{"iconUrl":"https://apigeo.larioja.org/img_punto.php?e=91575","iconSize":[32,37],"iconAnchor":[16,37],"popupAnchor":[0,-18.5]}}},{"id":"4678233","type":"Feature","geometry":{"type":"Point","coordinates":[-1.9517669999999998,42.006362,0]},"properties":{"Nombre":"Piscina municipal de Cervera del Rio Alhama","Código":"","Denominación":"Piscina Municipal de Cervera del Rio Alhama","Municipio":"Cervera del Río Alhama","Titularidad":"Pública","Tipo de piscina":"Descubierta","Número de vasos":3,"Observaciones":""},"style":{"icon":{"iconUrl":"https://apigeo.larioja.org/img_punto.php?e=91575","iconSize":[32,37],"iconAnchor":[16,37],"popupAnchor":[0,-18.5]}}},{"id":"4678491","type":"Feature","geometry":{"type":"Point","coordinates":[-2.477895,42.361469,0]},"properties":{"Nombre":"Piscina Municipal de Albelda de Iregua","Código":"","Denominación":"Piscina Municipal de Albelda de Iregua","Municipio":"Albelda de Iregua","Titularidad":"Pública","Tipo de piscina":"Descubierta","Número de vasos":2,"Observaciones":""},"style":{"icon":{"iconUrl":"https://apigeo.larioja.org/img_punto.php?e=91575","iconSize":[32,37],"iconAnchor":[16,37],"popupAnchor":[0,-18.5]}}},{"id":"4678492","type":"Feature","geometry":{"type":"Point","coordinates":[-2.564946,42.467887,0]},"properties":{"Nombre":"Piscina Municipal de Fuenmayor","Código":"","Denominación":"Piscina Municipal de Fuenmayor","Municipio":"Fuenmayor","Titularidad":"Pública","Tipo de piscina":"Mixta","Número de vasos":5,"Observaciones":"2 vasos descubierta y 3 vasos cubierta (2 natación y 1 spas o bañeras de hidromasaje)"},"style":{"icon":{"iconUrl":"https://apigeo.larioja.org/img_punto.php?e=91575","iconSize":[32,37],"iconAnchor":[16,37],"popupAnchor":[0,-18.5]}}},{"id":"4678493","type":"Feature","geometry":{"type":"Point","coordinates":[-2.234891,42.347226,0]},"properties":{"Nombre":"Piscina Municipal de Galilea","Código":"","Denominación":"Piscina Municipal de Galilea","Municipio":"Galilea","Titularidad":"Pública","Tipo de piscina":"Descubierta","Número de vasos":2,"Observaciones":""},"style":{"icon":{"iconUrl":"https://apigeo.larioja.org/img_punto.php?e=91575","iconSize":[32,37],"iconAnchor":[16,37],"popupAnchor":[0,-18.5]}}},{"id":"4678494","type":"Feature","geometry":{"type":"Point","coordinates":[-2.617172,42.172879,0]},"properties":{"Nombre":"Piscina Municipal de Gallinero de Cameros","Código":"","Denominación":"Piscina Municipal de Gallinero de Cameros","Municipio":"Gallinero de Cameros","Titularidad":"Pública","Tipo de piscina":"Descubierta","Número de vasos":1,"Observaciones":""},"style":{"icon":{"iconUrl":"https://apigeo.larioja.org/img_punto.php?e=91575","iconSize":[32,37],"iconAnchor":[16,37],"popupAnchor":[0,-18.5]}}},{"id":"4678495","type":"Feature","geometry":{"type":"Point","coordinates":[-2.891388,42.4453,0]},"properties":{"Nombre":"Piscina Municipal de Hervias","Código":"","Denominación":"Piscina Municipal de Hervias","Municipio":"Hervías","Titularidad":"Pública","Tipo de piscina":"Descubierta","Número de vasos":2,"Observaciones":""},"style":{"icon":{"iconUrl":"https://apigeo.larioja.org/img_punto.php?e=91575","iconSize":[32,37],"iconAnchor":[16,37],"popupAnchor":[0,-18.5]}}},{"id":"4678496","type":"Feature","geometry":{"type":"Point","coordinates":[-2.697839,42.430282,0]},"properties":{"Nombre":"Piscina Municipal de Huercanos","Código":"","Denominación":"Piscina Municipal de Huercanos","Municipio":"Huércanos","Titularidad":"Pública","Tipo de piscina":"Descubierta","Número de vasos":2,"Observaciones":""},"style":{"icon":{"iconUrl":"https://apigeo.larioja.org/img_punto.php?e=91575","iconSize":[32,37],"iconAnchor":[16,37],"popupAnchor":[0,-18.5]}}},{"id":"4678497","type":"Feature","geometry":{"type":"Point","coordinates":[-2.544209,42.173315,0]},"properties":{"Nombre":"Piscina Municipal de Laguna de Cameros","Código":"","Denominación":"Piscina Municipal de Laguna de Cameros","Municipio":"Laguna de Cameros","Titularidad":"Pública","Tipo de piscina":"Descubierta","Número de vasos":1,"Observaciones":""},"style":{"icon":{"iconUrl":"https://apigeo.larioja.org/img_punto.php?e=91575","iconSize":[32,37],"iconAnchor":[16,37],"popupAnchor":[0,-18.5]}}},{"id":"4678498","type":"Feature","geometry":{"type":"Point","coordinates":[-2.319647,42.334855,0]},"properties":{"Nombre":"Piscina Municipal de Lagunilla de Jubera","Código":"","Denominación":"Piscina Municipal de Lagunilla de Jubera","Municipio":"Lagunilla del Jubera","Titularidad":"Pública","Tipo de piscina":"Descubierta","Número de vasos":2,"Observaciones":""},"style":{"icon":{"iconUrl":"https://apigeo.larioja.org/img_punto.php?e=91575","iconSize":[32,37],"iconAnchor":[16,37],"popupAnchor":[0,-18.5]}}},{"id":"4678499","type":"Feature","geometry":{"type":"Point","coordinates":[-2.466801,42.423929,0]},"properties":{"Nombre":"Piscina Municipal de Lardero","Código":"","Denominación":"Piscina Municipal de Lardero","Municipio":"Lardero","Titularidad":"Pública","Tipo de piscina":"Descubierta","Número de vasos":4,"Observaciones":""},"style":{"icon":{"iconUrl":"https://apigeo.larioja.org/img_punto.php?e=91575","iconSize":[32,37],"iconAnchor":[16,37],"popupAnchor":[0,-18.5]}}},{"id":"4678503","type":"Feature","geometry":{"type":"Point","coordinates":[-2.436896,42.463556,0]},"properties":{"Nombre":"C.D.M. Lobete de Logroño","Código":"","Denominación":"C.D.M. Lobete de Logroño","Municipio":"Logroño","Titularidad":"Pública","Tipo de piscina":"Cubierta","Número de vasos":2,"Observaciones":"Dispone de instalaciones de spa."},"style":{"icon":{"iconUrl":"https://apigeo.larioja.org/img_punto.php?e=91575","iconSize":[32,37],"iconAnchor":[16,37],"popupAnchor":[0,-18.5]}}},{"id":"4678504","type":"Feature","geometry":{"type":"Point","coordinates":[-2.451703,42.456126,0]},"properties":{"Nombre":"C.D.M. Las Gaunas de Logroño","Código":"","Denominación":"C.D.M. Las Gaunas de Logroño","Municipio":"Logroño","Titularidad":"Pública","Tipo de piscina":"Cubierta","Número de vasos":2,"Observaciones":""},"style":{"icon":{"iconUrl":"https://apigeo.larioja.org/img_punto.php?e=91575","iconSize":[32,37],"iconAnchor":[16,37],"popupAnchor":[0,-18.5]}}},{"id":"4678505","type":"Feature","geometry":{"type":"Point","coordinates":[-2.45622,42.475213,0]},"properties":{"Nombre":"C.D.M. Las Norias de Logroño","Código":"","Denominación":"C.D.M. Las Norias de Logroño","Municipio":"Logroño","Titularidad":"Pública","Tipo de piscina":"Descubierta","Número de vasos":3,"Observaciones":""},"style":{"icon":{"iconUrl":"https://apigeo.larioja.org/img_punto.php?e=91575","iconSize":[32,37],"iconAnchor":[16,37],"popupAnchor":[0,-18.5]}}},{"id":"4678506","type":"Feature","geometry":{"type":"Point","coordinates":[-2.428031,42.468727,0]},"properties":{"Nombre":"C.D.M. La Ribera de Logroño","Código":"","Denominación":"C.D.M. La Ribera de Logroño","Municipio":"Logroño","Titularidad":"Pública","Tipo de piscina":"Cubierta","Número de vasos":2,"Observaciones":"Zona de spa."},"style":{"icon":{"iconUrl":"https://apigeo.larioja.org/img_punto.php?e=91575","iconSize":[32,37],"iconAnchor":[16,37],"popupAnchor":[0,-18.5]}}},{"id":"4678512","type":"Feature","geometry":{"type":"Point","coordinates":[-2.463411,42.476499,0]},"properties":{"Nombre":"Club Deportivo Berceo de Logroño","Código":"","Denominación":"Club Deportivo Berceo de Logroño","Municipio":"Logroño","Titularidad":"Privada","Tipo de piscina":"Descubierta","Número de vasos":2,"Observaciones":""},"style":{"icon":{"iconUrl":"https://apigeo.larioja.org/img_punto.php?e=91575","iconSize":[32,37],"iconAnchor":[16,37],"popupAnchor":[0,-18.5]}}},{"id":"4678515","type":"Feature","geometry":{"type":"Point","coordinates":[-2.424975,42.464992,0]},"properties":{"Nombre":"F.C.R. Cantabria de Logroño","Código":"","Denominación":"F.C.R. Cantabria de Logroño","Municipio":"Logroño","Titularidad":"Privada","Tipo de piscina":"Mixta","Número de vasos":8,"Observaciones":""},"style":{"icon":{"iconUrl":"https://apigeo.larioja.org/img_punto.php?e=91575","iconSize":[32,37],"iconAnchor":[16,37],"popupAnchor":[0,-18.5]}}},{"id":"4678526","type":"Feature","geometry":{"type":"Point","coordinates":[-2.452941,42.47173,0]},"properties":{"Nombre":"C.T.D. Adarraga de Logroño","Código":"","Denominación":"C.T.D. Adarraga de Logroño","Municipio":"Logroño","Titularidad":"Pública","Tipo de piscina":"Cubierta","Número de vasos":2,"Observaciones":""},"style":{"icon":{"iconUrl":"https://apigeo.larioja.org/img_punto.php?e=91575","iconSize":[32,37],"iconAnchor":[16,37],"popupAnchor":[0,-18.5]}}},{"id":"4678527","type":"Feature","geometry":{"type":"Point","coordinates":[-2.51966,42.489996,0]},"properties":{"Nombre":"C.D.M. El Cortijo ","Código":"","Denominación":"C.D.M. El Cortijo ","Municipio":"Logroño","Titularidad":"Pública","Tipo de piscina":"Descubierta","Número de vasos":2,"Observaciones":"Peternece a Logroño"},"style":{"icon":{"iconUrl":"https://apigeo.larioja.org/img_punto.php?e=91575","iconSize":[32,37],"iconAnchor":[16,37],"popupAnchor":[0,-18.5]}}},{"id":"4678528","type":"Feature","geometry":{"type":"Point","coordinates":[-2.454192,42.471997,0]},"properties":{"Nombre":"C.D.S.C.M. Hipica de Logroño","Código":"","Denominación":"C.D.S.C.M. Hipica de Logroño","Municipio":"Logroño","Titularidad":"Privada","Tipo de piscina":"Descubierta","Número de vasos":3,"Observaciones":""},"style":{"icon":{"iconUrl":"https://apigeo.larioja.org/img_punto.php?e=91575","iconSize":[32,37],"iconAnchor":[16,37],"popupAnchor":[0,-18.5]}}},{"id":"4678529","type":"Feature","geometry":{"type":"Point","coordinates":[-2.409355,42.463904,0]},"properties":{"Nombre":"Piscina Municipal de Varea","Código":"","Denominación":"Piscina Municipal de Varea","Municipio":"Logroño","Titularidad":"Pública","Tipo de piscina":"Descubierta","Número de vasos":2,"Observaciones":"Pertenece a Logroño"},"style":{"icon":{"iconUrl":"https://apigeo.larioja.org/img_punto.php?e=91575","iconSize":[32,37],"iconAnchor":[16,37],"popupAnchor":[0,-18.5]}}},{"id":"4678530","type":"Feature","geometry":{"type":"Point","coordinates":[-2.324545,42.404546,0]},"properties":{"Nombre":"Piscina Municipal de Murillo de Rio Leza","Código":"","Denominación":"Piscina Municipal de Murillo de Rio Leza","Municipio":"Murillo de Río Leza","Titularidad":"Pública","Tipo de piscina":"Descubierta","Número de vasos":2,"Observaciones":""},"style":{"icon":{"iconUrl":"https://apigeo.larioja.org/img_punto.php?e=91575","iconSize":[32,37],"iconAnchor":[16,37],"popupAnchor":[0,-18.5]}}},{"id":"4678531","type":"Feature","geometry":{"type":"Point","coordinates":[-2.7322480000000002,42.414869,0]},"properties":{"Nombre":"Piscina Municipal de Najera","Código":"","Denominación":"Piscina Municipal de Najera","Municipio":"Nájera","Titularidad":"Pública","Tipo de piscina":"Descubierta","Número de vasos":3,"Observaciones":""},"style":{"icon":{"iconUrl":"https://apigeo.larioja.org/img_punto.php?e=91575","iconSize":[32,37],"iconAnchor":[16,37],"popupAnchor":[0,-18.5]}}},{"id":"4678532","type":"Feature","geometry":{"type":"Point","coordinates":[-2.485298,42.335268,0]},"properties":{"Nombre":"Piscina Municipal de Nalda","Código":"","Denominación":"Piscina Municipal de Nalda","Municipio":"Nalda","Titularidad":"Pública","Tipo de piscina":"Descubierta","Número de vasos":2,"Observaciones":""},"style":{"icon":{"iconUrl":"https://apigeo.larioja.org/img_punto.php?e=91575","iconSize":[32,37],"iconAnchor":[16,37],"popupAnchor":[0,-18.5]}}},{"id":"4678534","type":"Feature","geometry":{"type":"Point","coordinates":[-2.555471,42.424829,0]},"properties":{"Nombre":"Piscina Municipal de Navarrete","Código":"","Denominación":"Piscina Municipal de Navarrete","Municipio":"Navarrete","Titularidad":"Pública","Tipo de piscina":"Descubierta","Número de vasos":2,"Observaciones":""},"style":{"icon":{"iconUrl":"https://apigeo.larioja.org/img_punto.php?e=91575","iconSize":[32,37],"iconAnchor":[16,37],"popupAnchor":[0,-18.5]}}},{"id":"4678535","type":"Feature","geometry":{"type":"Point","coordinates":[-2.243858,42.296023,0]},"properties":{"Nombre":"Piscina Municipal de La Villa de Ocon","Código":"","Denominación":"Piscina Municipal de La Villa de Ocon","Municipio":"Ocón","Titularidad":"Pública","Tipo de piscina":"Descubierta","Número de vasos":2,"Observaciones":"Pertenece al Ayto. de Ocon."},"style":{"icon":{"iconUrl":"https://apigeo.larioja.org/img_punto.php?e=91575","iconSize":[32,37],"iconAnchor":[16,37],"popupAnchor":[0,-18.5]}}},{"id":"4678536","type":"Feature","geometry":{"type":"Point","coordinates":[-2.700436,42.180404,0]},"properties":{"Nombre":"Piscina Municipal de Ortigosa de Cameros","Código":"","Denominación":"Piscina Municipal de Ortigosa de Cameros","Municipio":"Ortigosa de Cameros","Titularidad":"Pública","Tipo de piscina":"Descubierta","Número de vasos":2,"Observaciones":""},"style":{"icon":{"iconUrl":"https://apigeo.larioja.org/img_punto.php?e=91575","iconSize":[32,37],"iconAnchor":[16,37],"popupAnchor":[0,-18.5]}}},{"id":"4678537","type":"Feature","geometry":{"type":"Point","coordinates":[-2.079603,42.33191,0]},"properties":{"Nombre":"Piscina Municipal de Pradejon","Código":"","Denominación":"Piscina Municipal de Pradejon","Municipio":"Pradejón","Titularidad":"Pública","Tipo de piscina":"Descubierta","Número de vasos":2,"Observaciones":""},"style":{"icon":{"iconUrl":"https://apigeo.larioja.org/img_punto.php?e=91575","iconSize":[32,37],"iconAnchor":[16,37],"popupAnchor":[0,-18.5]}}},{"id":"4678538","type":"Feature","geometry":{"type":"Point","coordinates":[-2.198543,42.339512,0]},"properties":{"Nombre":"Piscina Municipal de El Redal","Código":"","Denominación":"Piscina Municipal de El Redal","Municipio":"Redal (El)","Titularidad":"Pública","Tipo de piscina":"Descubierta","Número de vasos":2,"Observaciones":""},"style":{"icon":{"iconUrl":"https://apigeo.larioja.org/img_punto.php?e=91575","iconSize":[32,37],"iconAnchor":[16,37],"popupAnchor":[0,-18.5]}}},{"id":"4678569","type":"Feature","geometry":{"type":"Point","coordinates":[-2.386815,42.351724,0]},"properties":{"Nombre":"Piscina Municipal de Ribafrecha","Código":"","Denominación":"Piscina Municipal de Ribafrecha","Municipio":"Ribafrecha","Titularidad":"Pública","Tipo de piscina":"Descubierta","Número de vasos":2,"Observaciones":""},"style":{"icon":{"iconUrl":"https://apigeo.larioja.org/img_punto.php?e=91575","iconSize":[32,37],"iconAnchor":[16,37],"popupAnchor":[0,-18.5]}}},{"id":"4678570","type":"Feature","geometry":{"type":"Point","coordinates":[-2.4747019999999997,42.230001,0]},"properties":{"Nombre":"Piscina Municipal de San Roman de Cameros","Código":"","Denominación":"Piscina Municipal de San Roman de Cameros","Municipio":"San Román de Cameros","Titularidad":"Pública","Tipo de piscina":"Descubierta","Número de vasos":2,"Observaciones":""},"style":{"icon":{"iconUrl":"https://apigeo.larioja.org/img_punto.php?e=91575","iconSize":[32,37],"iconAnchor":[16,37],"popupAnchor":[0,-18.5]}}},{"id":"4678571","type":"Feature","geometry":{"type":"Point","coordinates":[-2.307566,42.316311,0]},"properties":{"Nombre":"Piscina Municipal de Santa Engracia del Jubera","Código":"","Denominación":"Piscina Municipal de Santa Engracia del Jubera","Municipio":"Santa Engracia del Jubera","Titularidad":"Pública","Tipo de piscina":"Descubierta","Número de vasos":1,"Observaciones":""},"style":{"icon":{"iconUrl":"https://apigeo.larioja.org/img_punto.php?e=91575","iconSize":[32,37],"iconAnchor":[16,37],"popupAnchor":[0,-18.5]}}},{"id":"4678574","type":"Feature","geometry":{"type":"Point","coordinates":[-2.547107,42.353982,0]},"properties":{"Nombre":"Club de Golf de Sojuela","Código":"","Denominación":"Club de Golf de Sojuela","Municipio":"Sojuela","Titularidad":"Privada","Tipo de piscina":"Descubierta","Número de vasos":2,"Observaciones":""},"style":{"icon":{"iconUrl":"https://apigeo.larioja.org/img_punto.php?e=91575","iconSize":[32,37],"iconAnchor":[16,37],"popupAnchor":[0,-18.5]}}},{"id":"4678606","type":"Feature","geometry":{"type":"Point","coordinates":[-3.077714,42.49465,0]},"properties":{"Nombre":"Piscina Municipal de Tormantos","Código":"","Denominación":"Piscina Municipal de Tormantos","Municipio":"Tormantos","Titularidad":"Pública","Tipo de piscina":"Descubierta","Número de vasos":1,"Observaciones":""},"style":{"icon":{"iconUrl":"https://apigeo.larioja.org/img_punto.php?e=91575","iconSize":[32,37],"iconAnchor":[16,37],"popupAnchor":[0,-18.5]}}},{"id":"4678607","type":"Feature","geometry":{"type":"Point","coordinates":[-2.627789,42.255538,0]},"properties":{"Nombre":"Piscina Municipal de Torrecilla en Cameros","Código":"","Denominación":"Piscina Municipal de Torrecilla en Cameros","Municipio":"Torrecilla en Cameros","Titularidad":"Pública","Tipo de piscina":"Descubierta","Número de vasos":2,"Observaciones":""},"style":{"icon":{"iconUrl":"https://apigeo.larioja.org/img_punto.php?e=91575","iconSize":[32,37],"iconAnchor":[16,37],"popupAnchor":[0,-18.5]}}},{"id":"4678608","type":"Feature","geometry":{"type":"Point","coordinates":[-2.115184,42.296886,0]},"properties":{"Nombre":"Piscina Municipal de Tudelilla","Código":"","Denominación":"Piscina Municipal de Tudelilla","Municipio":"Tudelilla","Titularidad":"Pública","Tipo de piscina":"Descubierta","Número de vasos":2,"Observaciones":""},"style":{"icon":{"iconUrl":"https://apigeo.larioja.org/img_punto.php?e=91575","iconSize":[32,37],"iconAnchor":[16,37],"popupAnchor":[0,-18.5]}}},{"id":"4678609","type":"Feature","geometry":{"type":"Point","coordinates":[-2.849009,42.156459,0]},"properties":{"Nombre":"Piscina Municipal de Ventrosa","Código":"","Denominación":"Piscina Municipal de Ventrosa","Municipio":"Ventrosa","Titularidad":"Pública","Tipo de piscina":"Descubierta","Número de vasos":1,"Observaciones":""},"style":{"icon":{"iconUrl":"https://apigeo.larioja.org/img_punto.php?e=91575","iconSize":[32,37],"iconAnchor":[16,37],"popupAnchor":[0,-18.5]}}},{"id":"4678610","type":"Feature","geometry":{"type":"Point","coordinates":[-2.534987,42.309678,0]},"properties":{"Nombre":"Piscina Municipal de Viguera","Código":"","Denominación":"Piscina Municipal de Viguera","Municipio":"Viguera","Titularidad":"Pública","Tipo de piscina":"Descubierta","Número de vasos":2,"Observaciones":""},"style":{"icon":{"iconUrl":"https://apigeo.larioja.org/img_punto.php?e=91575","iconSize":[32,37],"iconAnchor":[16,37],"popupAnchor":[0,-18.5]}}},{"id":"4678611","type":"Feature","geometry":{"type":"Point","coordinates":[-2.887067,42.610084,0]},"properties":{"Nombre":"Piscina Municipal de Villalba de Rioja","Código":"","Denominación":"Piscina Municipal de Villalba de Rioja","Municipio":"Villalba de Rioja","Titularidad":"Pública","Tipo de piscina":"Descubierta","Número de vasos":2,"Observaciones":""},"style":{"icon":{"iconUrl":"https://apigeo.larioja.org/img_punto.php?e=91575","iconSize":[32,37],"iconAnchor":[16,37],"popupAnchor":[0,-18.5]}}},{"id":"4678612","type":"Feature","geometry":{"type":"Point","coordinates":[-2.419682,42.423079,0]},"properties":{"Nombre":"Piscina Municipal de Villamediana de Iregua","Código":"","Denominación":"Piscina Municipal de Villamediana de Iregua","Municipio":"Villamediana de Iregua","Titularidad":"Pública","Tipo de piscina":"Mixta","Número de vasos":4,"Observaciones":"2 piscinas descubiertas y 2 climatizadas"},"style":{"icon":{"iconUrl":"https://apigeo.larioja.org/img_punto.php?e=91575","iconSize":[32,37],"iconAnchor":[16,37],"popupAnchor":[0,-18.5]}}},{"id":"4678613","type":"Feature","geometry":{"type":"Point","coordinates":[-2.676258,42.10844,0]},"properties":{"Nombre":"Piscina Municipal de Villoslada de Cameros","Código":"","Denominación":"Piscina Municipal de Villoslada de Cameros","Municipio":"Villoslada de Cameros","Titularidad":"Pública","Tipo de piscina":"Descubierta","Número de vasos":2,"Observaciones":""},"style":{"icon":{"iconUrl":"https://apigeo.larioja.org/img_punto.php?e=91575","iconSize":[32,37],"iconAnchor":[16,37],"popupAnchor":[0,-18.5]}}},{"id":"4678784","type":"Feature","geometry":{"type":"Point","coordinates":[-2.9152389999999997,42.441537,0]},"properties":{"Nombre":"Piscina Camping de Bañares","Código":"","Denominación":"Piscina Camping de Bañares","Municipio":"Bañares","Titularidad":"Privada","Tipo de piscina":"Descubierta","Número de vasos":2,"Observaciones":""},"style":{"icon":{"iconUrl":"https://apigeo.larioja.org/img_punto.php?e=91575","iconSize":[32,37],"iconAnchor":[16,37],"popupAnchor":[0,-18.5]}}},{"id":"4678785","type":"Feature","geometry":{"type":"Point","coordinates":[-2.92162,42.530628,0]},"properties":{"Nombre":"Piscina Camping de Castañares de Rioja","Código":"","Denominación":"Piscina Camping de Castañares de Rioja","Municipio":"Castañares de Rioja","Titularidad":"Privada","Tipo de piscina":"Descubierta","Número de vasos":2,"Observaciones":""},"style":{"icon":{"iconUrl":"https://apigeo.larioja.org/img_punto.php?e=91575","iconSize":[32,37],"iconAnchor":[16,37],"popupAnchor":[0,-18.5]}}},{"id":"4678787","type":"Feature","geometry":{"type":"Point","coordinates":[-2.853918,42.578419,0]},"properties":{"Nombre":"Piscina Camping de Haro","Código":"","Denominación":"Piscina Camping de Haro","Municipio":"Haro","Titularidad":"Privada","Tipo de piscina":"Descubierta","Número de vasos":2,"Observaciones":""},"style":{"icon":{"iconUrl":"https://apigeo.larioja.org/img_punto.php?e=91575","iconSize":[32,37],"iconAnchor":[16,37],"popupAnchor":[0,-18.5]}}},{"id":"4678789","type":"Feature","geometry":{"type":"Point","coordinates":[-2.568163,42.482966,0]},"properties":{"Nombre":"Piscina Camping de Fuenmayor","Código":"","Denominación":"Piscina Camping de Fuenmayor","Municipio":"Fuenmayor","Titularidad":"Privada","Tipo de piscina":"Descubierta","Número de vasos":2,"Observaciones":""},"style":{"icon":{"iconUrl":"https://apigeo.larioja.org/img_punto.php?e=91575","iconSize":[32,37],"iconAnchor":[16,37],"popupAnchor":[0,-18.5]}}},{"id":"4678790","type":"Feature","geometry":{"type":"Point","coordinates":[-2.551799,42.41644,0]},"properties":{"Nombre":"Piscina Camping de Navarrete","Código":"","Denominación":"Piscina Camping de Navarrete","Municipio":"Navarrete","Titularidad":"Privada","Tipo de piscina":"Descubierta","Número de vasos":1,"Observaciones":""},"style":{"icon":{"iconUrl":"https://apigeo.larioja.org/img_punto.php?e=91575","iconSize":[32,37],"iconAnchor":[16,37],"popupAnchor":[0,-18.5]}}},{"id":"4678793","type":"Feature","geometry":{"type":"Point","coordinates":[-2.838523,42.565979,0]},"properties":{"Nombre":"Piscina Hotel Ciudad de Haro","Código":"","Denominación":"Piscina Hotel Ciudad de Haro","Municipio":"Haro","Titularidad":"Privada","Tipo de piscina":"Descubierta","Número de vasos":1,"Observaciones":""},"style":{"icon":{"iconUrl":"https://apigeo.larioja.org/img_punto.php?e=91575","iconSize":[32,37],"iconAnchor":[16,37],"popupAnchor":[0,-18.5]}}},{"id":"4678796","type":"Feature","geometry":{"type":"Point","coordinates":[-2.2411659999999998,42.206916,0]},"properties":{"Nombre":"Piscina Balneario de Arnedillo","Código":"","Denominación":"Piscina Balneario de Arnedillo","Municipio":"Arnedillo","Titularidad":"Privada","Tipo de piscina":"Descubierta","Número de vasos":1,"Observaciones":""},"style":{"icon":{"iconUrl":"https://apigeo.larioja.org/img_punto.php?e=91575","iconSize":[32,37],"iconAnchor":[16,37],"popupAnchor":[0,-18.5]}}},{"id":"4678797","type":"Feature","geometry":{"type":"Point","coordinates":[-2.000496,42.319936,0]},"properties":{"Nombre":"Piscina Hotel Zenit de Calahorra","Código":"","Denominación":"Piscina Hotel Zenit de Calahorra","Municipio":"Calahorra","Titularidad":"Privada","Tipo de piscina":"Descubierta","Número de vasos":2,"Observaciones":""},"style":{"icon":{"iconUrl":"https://apigeo.larioja.org/img_punto.php?e=91575","iconSize":[32,37],"iconAnchor":[16,37],"popupAnchor":[0,-18.5]}}},{"id":"4678800","type":"Feature","geometry":{"type":"Point","coordinates":[-2.801713,42.424637,0]},"properties":{"Nombre":"Piscina Hotel Real Casona de las Amas de Azofra","Código":"","Denominación":"Piscina Hotel Real Casona de las Amas de Azofra","Municipio":"Azofra","Titularidad":"Privada","Tipo de piscina":"Descubierta","Número de vasos":2,"Observaciones":"1 piscina descubierta y 1 piscina cubierta"},"style":{"icon":{"iconUrl":"https://apigeo.larioja.org/img_punto.php?e=91575","iconSize":[32,37],"iconAnchor":[16,37],"popupAnchor":[0,-18.5]}}},{"id":"4773188","type":"Feature","geometry":{"type":"Point","coordinates":[-3.031745,42.267368,0]},"properties":{"Nombre":"Piscina Hotel La Antigua Ferrería - Azarrulla","Código":"","Denominación":"Piscina Hotel La Antigua Ferrería - Azarrulla","Municipio":"Ezcaray","Titularidad":"Pública","Tipo de piscina":"Descubierta","Número de vasos":1,"Observaciones":""},"style":{"icon":{"iconUrl":"https://apigeo.larioja.org/img_punto.php?e=91575","iconSize":[32,37],"iconAnchor":[16,37],"popupAnchor":[0,-18.5]}}}]}